[{"OBJECT_NAME":"STARLINK-1321","OBJECT_ID":"2020-025AU","EPOCH":"2026-03-09T22:50:56.097888","MEAN_MOTION":15.48328666,"ECCENTRICITY":0.00039179,"INCLINATION":53.0512,"RA_OF_ASC_NODE":57.2281,"ARG_OF_PERICENTER":62.1333,"MEAN_ANOMALY":298.0071,"EPHEMERIS_TYPE":0,"CLASSIFICATION_TYPE":"U","NORAD_CAT_ID":45573,"ELEMENT_SET_NO":999,"REV_AT_EPOCH":32550,"BSTAR":0.0012717452,"MEAN_MOTION_DOT":0.00068518,"MEAN_MOTION_DDOT":0},{"OBJECT_NAME":"HAWK-5C","OBJECT_ID":"2022-057Y","EPOCH":"2026-03-09T22:02:16.006848","MEAN_MOTION":15.47549257,"ECCENTRICITY":0.00056146,"INCLINATION":97.6455,"RA_OF_ASC_NODE":222.5613,"ARG_OF_PERICENTER":75.7215,"MEAN_ANOMALY":284.4658,"EPHEMERIS_TYPE":0,"CLASSIFICATION_TYPE":"U","NORAD_CAT_ID":52754,"ELEMENT_SET_NO":999,"REV_AT_EPOCH":21097,"BSTAR":0.00045712599,"MEAN_MOTION_DOT":0.00023473,"MEAN_MOTION_DDOT":0}]
